{"type": "FeatureCollection", "features": [ {"type": "Feature", "properties": {"norad_id": 66819, "name": "STARLINK-35989", "group": "last-30-days", "lat": -24.064560114968927, "lon": 160.23726570532534, "alt_km": 416.0632517854483, "timestamp": "2025-12-23T05:02:10.750339+00:00", "meta": {"OBJECT_NAME": "STARLINK-35989", "OBJECT_ID": "2025-278AE", "EPOCH": "2025-12-22T22:00:03.000096", "MEAN_MOTION": 15.51613357, "ECCENTRICITY": 0.00018447, "INCLINATION": 42.9994, "RA_OF_ASC_NODE": 190.5903, "ARG_OF_PERICENTER": 277.3503, "MEAN_ANOMALY": 207.0418, "EPHEMERIS_TYPE": 0, "CLASSIFICATION_TYPE": "U", "NORAD_CAT_ID": 66819, "ELEMENT_SET_NO": 999, "REV_AT_EPOCH": 459, "BSTAR": -0.026410054, "MEAN_MOTION_DOT": -0.01437765, "MEAN_MOTION_DDOT": 0}, "tle": {"line1": "1 66819U 25278AE  25356.91670139 -.01437765  00000+0 -26410-1 0  9999", "line2": "2 66819  42.9994 190.5903 0001844 277.3503 207.0418 15.51613357  4597"}}, "geometry": {"type": "Point", "coordinates": [160.23726570532534, -24.064560114968927]}}, {"type": "Feature", "properties": {"norad_id": 66820, "name": "KOMPSAT-7", "group": "last-30-days", "lat": -20.44488439869798, "lon": -54.236165452289626, "alt_km": 572.8956935623155, "timestamp": "2025-12-23T05:02:10.750349+00:00", "meta": {"OBJECT_NAME": "KOMPSAT-7", "OBJECT_ID": "2025-279A", "EPOCH": "2025-12-22T19:31:35.003712", "MEAN_MOTION": 15.00657999, "ECCENTRICITY": 0.0011114, "INCLINATION": 97.6453, "RA_OF_ASC_NODE": 302.5039, "ARG_OF_PERICENTER": 229.8649, "MEAN_ANOMALY": 130.1602, "EPHEMERIS_TYPE": 0, "CLASSIFICATION_TYPE": "U", "NORAD_CAT_ID": 66820, "ELEMENT_SET_NO": 999, "REV_AT_EPOCH": 316, "BSTAR": 0.00023698588, "MEAN_MOTION_DOT": 2.942e-05, "MEAN_MOTION_DDOT": 0}, "tle": {"line1": "1 66820U 25279A   25356.81359958  .00002942  00000+0  23699-3 0  9994", "line2": "2 66820  97.6453 302.5039 0011114 229.8649 130.1602 15.00657999  3162"}}, "geometry": {"type": "Point", "coordinates": [-54.236165452289626, -20.44488439869798]}}, {"type": "Feature", "properties": {"norad_id": 66821, "name": "STARLINK-35966", "group": "last-30-days", "lat": -7.813392587913918, "lon": -7.396105302501015, "alt_km": 412.6906907599041, "timestamp": "2025-12-23T05:02:10.750359+00:00", "meta": {"OBJECT_NAME": "STARLINK-35966", "OBJECT_ID": "2025-280A", "EPOCH": "2025-12-22T22:00:03.000096", "MEAN_MOTION": 15.52508777, "ECCENTRICITY": 0.00033155, "INCLINATION": 69.9998, "RA_OF_ASC_NODE": 170.5416, "ARG_OF_PERICENTER": 275.3828, "MEAN_ANOMALY": 74.942, "EPHEMERIS_TYPE": 0, "CLASSIFICATION_TYPE": "U", "NORAD_CAT_ID": 66821, "ELEMENT_SET_NO": 999, "REV_AT_EPOCH": 453, "BSTAR": 0.00020539329, "MEAN_MOTION_DOT": 0.00012484, "MEAN_MOTION_DDOT": 0}, "tle": {"line1": "1 66821U 25280A   25356.91670139  .00012484  00000+0  20539-3 0  9997", "line2": "2 66821  69.9998 170.5416 0003315 275.3828  74.9420 15.52508777  4531"}}, "geometry": {"type": "Point", "coordinates": [-7.396105302501015, -7.813392587913918]}}, {"type": "Feature", "properties": {"norad_id": 66822, "name": "STARLINK-35958", "group": "last-30-days", "lat": -9.611358359018508, "lon": -6.726006182400541, "alt_km": 412.77887034203286, "timestamp": "2025-12-23T05:02:10.750369+00:00", "meta": {"OBJECT_NAME": "STARLINK-35958", "OBJECT_ID": "2025-280B", "EPOCH": "2025-12-22T22:00:03.000096", "MEAN_MOTION": 15.52513275, "ECCENTRICITY": 0.00032838, "INCLINATION": 69.9996, "RA_OF_ASC_NODE": 170.5403, "ARG_OF_PERICENTER": 274.3567, "MEAN_ANOMALY": 77.8818, "EPHEMERIS_TYPE": 0, "CLASSIFICATION_TYPE": "U", "NORAD_CAT_ID": 66822, "ELEMENT_SET_NO": 999, "REV_AT_EPOCH": 453, "BSTAR": 8.8756614e-05, "MEAN_MOTION_DOT": 5.295e-05, "MEAN_MOTION_DDOT": 0}, "tle": {"line1": "1 66822U 25280B   25356.91670139  .00005295  00000+0  88757-4 0  9997", "line2": "2 66822  69.9996 170.5403 0003283 274.3567  77.8818 15.52513275  4531"}}, "geometry": {"type": "Point", "coordinates": [-6.726006182400541, -9.611358359018508]}}, {"type": "Feature", "properties": {"norad_id": 66823, "name": "STARLINK-35957", "group": "last-30-days", "lat": -11.407193763549826, "lon": -6.050785085866548, "alt_km": 412.80063918848555, "timestamp": "2025-12-23T05:02:10.750379+00:00", "meta": {"OBJECT_NAME": "STARLINK-35957", "OBJECT_ID": "2025-280C", "EPOCH": "2025-12-22T22:00:03.000096", "MEAN_MOTION": 15.52511228, "ECCENTRICITY": 0.00033712, "INCLINATION": 69.9997, "RA_OF_ASC_NODE": 170.5373, "ARG_OF_PERICENTER": 272.1373, "MEAN_ANOMALY": 82.0185, "EPHEMERIS_TYPE": 0, "CLASSIFICATION_TYPE": "U", "NORAD_CAT_ID": 66823, "ELEMENT_SET_NO": 999, "REV_AT_EPOCH": 453, "BSTAR": 0.00016769605, "MEAN_MOTION_DOT": 0.0001016, "MEAN_MOTION_DDOT": 0}, "tle": {"line1": "1 66823U 25280C   25356.91670139  .00010160  00000+0  16770-3 0  9990", "line2": "2 66823  69.9997 170.5373 0003371 272.1373  82.0185 15.52511228  4539"}}, "geometry": {"type": "Point", "coordinates": [-6.050785085866548, -11.407193763549826]}}, {"type": "Feature", "properties": {"norad_id": 66824, "name": "STARLINK-35896", "group": "last-30-days", "lat": -13.19992377541617, "lon": -5.366607460869011, "alt_km": 413.0213054425394, "timestamp": "2025-12-23T05:02:10.750389+00:00", "meta": {"OBJECT_NAME": "STARLINK-35896", "OBJECT_ID": "2025-280D", "EPOCH": "2025-12-22T22:00:03.000096", "MEAN_MOTION": 15.52511898, "ECCENTRICITY": 0.0003556, "INCLINATION": 69.9997, "RA_OF_ASC_NODE": 170.5352, "ARG_OF_PERICENTER": 275.3839, "MEAN_ANOMALY": 80.6886, "EPHEMERIS_TYPE": 0, "CLASSIFICATION_TYPE": "U", "NORAD_CAT_ID": 66824, "ELEMENT_SET_NO": 999, "REV_AT_EPOCH": 453, "BSTAR": 0.00013485896, "MEAN_MOTION_DOT": 8.136e-05, "MEAN_MOTION_DDOT": 0}, "tle": {"line1": "1 66824U 25280D   25356.91670139  .00008136  00000+0  13486-3 0  9992", "line2": "2 66824  69.9997 170.5352 0003556 275.3839  80.6886 15.52511898  4539"}}, "geometry": {"type": "Point", "coordinates": [-5.366607460869011, -13.19992377541617]}}, {"type": "Feature", "properties": {"norad_id": 66825, "name": "STARLINK-35476", "group": "last-30-days", "lat": -14.996970593257684, "lon": -4.66996332196746, "alt_km": 413.00857301096676, "timestamp": "2025-12-23T05:02:10.750399+00:00", "meta": {"OBJECT_NAME": "STARLINK-35476", "OBJECT_ID": "2025-280E", "EPOCH": "2025-12-22T22:00:03.000096", "MEAN_MOTION": 15.52511887, "ECCENTRICITY": 0.00033608, "INCLINATION": 69.9997, "RA_OF_ASC_NODE": 170.533, "ARG_OF_PERICENTER": 271.7394, "MEAN_ANOMALY": 86.252, "EPHEMERIS_TYPE": 0, "CLASSIFICATION_TYPE": "U", "NORAD_CAT_ID": 66825, "ELEMENT_SET_NO": 999, "REV_AT_EPOCH": 438, "BSTAR": 0.00010360772, "MEAN_MOTION_DOT": 6.21e-05, "MEAN_MOTION_DDOT": 0}, "tle": {"line1": "1 66825U 25280E   25356.91670139  .00006210  00000+0  10361-3 0  9993", "line2": "2 66825  69.9997 170.5330 0003360 271.7394  86.2520 15.52511887  4383"}}, "geometry": {"type": "Point", "coordinates": [-4.66996332196746, -14.996970593257684]}}, {"type": "Feature", "properties": {"norad_id": 66826, "name": "STARLINK-35898", "group": "last-30-days", "lat": -16.790655419862, "lon": -3.9624928521422547, "alt_km": 413.26536790535556, "timestamp": "2025-12-23T05:02:10.750409+00:00", "meta": {"OBJECT_NAME": "STARLINK-35898", "OBJECT_ID": "2025-280F", "EPOCH": "2025-12-22T22:00:03.000096", "MEAN_MOTION": 15.52519337, "ECCENTRICITY": 0.00033108, "INCLINATION": 69.9998, "RA_OF_ASC_NODE": 170.5303, "ARG_OF_PERICENTER": 275.6114, "MEAN_ANOMALY": 84.2962, "EPHEMERIS_TYPE": 0, "CLASSIFICATION_TYPE": "U", "NORAD_CAT_ID": 66826, "ELEMENT_SET_NO": 999, "REV_AT_EPOCH": 453, "BSTAR": -0.00011690464, "MEAN_MOTION_DOT": -7.353e-05, "MEAN_MOTION_DDOT": 0}, "tle": {"line1": "1 66826U 25280F   25356.91670139 -.00007353  00000+0 -11690-3 0  9991", "line2": "2 66826  69.9998 170.5303 0003310 275.6114  84.2962 15.52519337  4536"}}, "geometry": {"type": "Point", "coordinates": [-3.9624928521422547, -16.790655419862]}}, {"type": "Feature", "properties": {"norad_id": 66827, "name": "STARLINK-35959", "group": "last-30-days", "lat": -18.58082570646669, "lon": -3.2413715330967605, "alt_km": 413.3861163598831, "timestamp": "2025-12-23T05:02:10.750436+00:00", "meta": {"OBJECT_NAME": "STARLINK-35959", "OBJECT_ID": "2025-280G", "EPOCH": "2025-12-22T22:00:03.000096", "MEAN_MOTION": 15.52517039, "ECCENTRICITY": 0.00032565, "INCLINATION": 69.9998, "RA_OF_ASC_NODE": 170.5281, "ARG_OF_PERICENTER": 276.0515, "MEAN_ANOMALY": 85.7764, "EPHEMERIS_TYPE": 0, "CLASSIFICATION_TYPE": "U", "NORAD_CAT_ID": 66827, "ELEMENT_SET_NO": 999, "REV_AT_EPOCH": 453, "BSTAR": -9.179153e-05, "MEAN_MOTION_DOT": -5.81e-05, "MEAN_MOTION_DDOT": 0}, "tle": {"line1": "1 66827U 25280G   25356.91670139 -.00005810  00000+0 -91792-4 0  9990", "line2": "2 66827  69.9998 170.5281 0003256 276.0515  85.7764 15.52517039  4534"}}, "geometry": {"type": "Point", "coordinates": [-3.2413715330967605, -18.58082570646669]}}, {"type": "Feature", "properties": {"norad_id": 66828, "name": "STARLINK-35982", "group": "last-30-days", "lat": -22.14411501275674, "lon": -1.7546743770446882, "alt_km": 413.49883858391604, "timestamp": "2025-12-23T05:02:10.750447+00:00", "meta": {"OBJECT_NAME": "STARLINK-35982", "OBJECT_ID": "2025-280H", "EPOCH": "2025-12-22T22:00:03.000096", "MEAN_MOTION": 15.5251636, "ECCENTRICITY": 0.000329, "INCLINATION": 69.9998, "RA_OF_ASC_NODE": 170.5237, "ARG_OF_PERICENTER": 274.9989, "MEAN_ANOMALY": 90.658, "EPHEMERIS_TYPE": 0, "CLASSIFICATION_TYPE": "U", "NORAD_CAT_ID": 66828, "ELEMENT_SET_NO": 999, "REV_AT_EPOCH": 453, "BSTAR": -3.406886e-05, "MEAN_MOTION_DOT": -2.263e-05, "MEAN_MOTION_DDOT": 0}, "tle": {"line1": "1 66828U 25280H   25356.91670139 -.00002263  00000+0 -34069-4 0  9994", "line2": "2 66828  69.9998 170.5237 0003290 274.9989  90.6580 15.52516360  4533"}}, "geometry": {"type": "Point", "coordinates": [-1.7546743770446882, -22.14411501275674]}}]}